[{"OBJECT_NAME":"STARLINK-36165","OBJECT_ID":"2025-286N","EPOCH":"2026-03-09T05:51:10.298016","MEAN_MOTION":15.30201908,"ECCENTRICITY":8.763e-5,"INCLINATION":53.159,"RA_OF_ASC_NODE":0.8674,"ARG_OF_PERICENTER":101.8207,"MEAN_ANOMALY":258.2893,"EPHEMERIS_TYPE":0,"CLASSIFICATION_TYPE":"U","NORAD_CAT_ID":66937,"ELEMENT_SET_NO":999,"REV_AT_EPOCH":1534,"BSTAR":0.00062807231,"MEAN_MOTION_DOT":0.00018289,"MEAN_MOTION_DDOT":0},{"OBJECT_NAME":"COSMOS 2251 DEB","OBJECT_ID":"1993-036BXP","EPOCH":"2026-03-04T07:23:49.847712","MEAN_MOTION":15.24789556,"ECCENTRICITY":0.00190834,"INCLINATION":73.9759,"RA_OF_ASC_NODE":64.3004,"ARG_OF_PERICENTER":239.4537,"MEAN_ANOMALY":120.4779,"EPHEMERIS_TYPE":0,"CLASSIFICATION_TYPE":"U","NORAD_CAT_ID":47059,"ELEMENT_SET_NO":999,"REV_AT_EPOCH":9543,"BSTAR":0.0048704033,"MEAN_MOTION_DOT":0.00123422,"MEAN_MOTION_DDOT":0}]
